[{"OBJECT_NAME":"STARLINK-32663","OBJECT_ID":"2024-229F","EPOCH":"2026-03-09T22:15:10.383264","MEAN_MOTION":15.27604752,"ECCENTRICITY":0.0001419,"INCLINATION":43.0011,"RA_OF_ASC_NODE":269.7238,"ARG_OF_PERICENTER":304.4278,"MEAN_ANOMALY":55.644,"EPHEMERIS_TYPE":0,"CLASSIFICATION_TYPE":"U","NORAD_CAT_ID":62197,"ELEMENT_SET_NO":999,"REV_AT_EPOCH":7059,"BSTAR":0.0010258125,"MEAN_MOTION_DOT":0.00028095,"MEAN_MOTION_DDOT":0},{"OBJECT_NAME":"SIMSAT 2","OBJECT_ID":"2000-026B","EPOCH":"2026-03-09T20:25:01.673184","MEAN_MOTION":15.29036787,"ECCENTRICITY":0.00037035,"INCLINATION":86.3514,"RA_OF_ASC_NODE":176.4271,"ARG_OF_PERICENTER":287.9875,"MEAN_ANOMALY":72.0969,"EPHEMERIS_TYPE":0,"CLASSIFICATION_TYPE":"U","NORAD_CAT_ID":26366,"ELEMENT_SET_NO":999,"REV_AT_EPOCH":42803,"BSTAR":0.00013465771,"MEAN_MOTION_DOT":3.833e-5,"MEAN_MOTION_DDOT":0}]
